{
  "type": "FeatureCollection",
  "features": [
    {
      "type": "Feature",
      "properties": {
        "norad_id": 66401,
        "name": "STARLINK-35668",
        "group": "last-30-days",
        "lat": -50.31816480059127,
        "lon": -146.93444866128374,
        "alt_km": 453.02963952883783,
        "timestamp": "2025-12-09T20:37:08.054401+00:00",
        "meta_object_name": "STARLINK-35668",
        "meta_object_id": "2025-257X",
        "meta_epoch": "2025-12-09T16:00:01.999584",
        "meta_mean_motion": 15.3954948,
        "meta_eccentricity": 0.00014089,
        "meta_inclination": 53.1592,
        "meta_ra_of_asc_node": 278.6141,
        "meta_arg_of_pericenter": 92.4494,
        "meta_mean_anomaly": 206.315,
        "meta_ephemeris_type": 0,
        "meta_classification_type": "U",
        "meta_norad_cat_id": 66401,
        "meta_element_set_no": 999,
        "meta_rev_at_epoch": 600,
        "meta_bstar": 0.0021708017,
        "meta_mean_motion_dot": 0.00087227,
        "meta_mean_motion_ddot": 0,
        "tle_line1": "1 66401U 25257X   25343.66668981  .00087227  00000+0  21708-2 0  9990",
        "tle_line2": "2 66401  53.1592 278.6141 0001408  92.4494 206.3150 15.39549480  6009"
      },
      "geometry": {
        "type": "Point",
        "coordinates": [
          -146.93444866128374,
          -50.31816480059127
        ]
      }
    },
    {
      "type": "Feature",
      "properties": {
        "norad_id": 66402,
        "name": "STARLINK-35644",
        "group": "last-30-days",
        "lat": -52.03213664290608,
        "lon": 171.64733002455662,
        "alt_km": 452.92683762947127,
        "timestamp": "2025-12-09T20:37:08.054411+00:00",
        "meta_object_name": "STARLINK-35644",
        "meta_object_id": "2025-257Y",
        "meta_epoch": "2025-12-09T16:00:01.999584",
        "meta_mean_motion": 15.39551001,
        "meta_eccentricity": 0.00012183,
        "meta_inclination": 53.1594,
        "meta_ra_of_asc_node": 278.6656,
        "meta_arg_of_pericenter": 96.1432,
        "meta_mean_anomaly": 176.863,
        "meta_ephemeris_type": 0,
        "meta_classification_type": "U",
        "meta_norad_cat_id": 66402,
        "meta_element_set_no": 999,
        "meta_rev_at_epoch": 600,
        "meta_bstar": 0.0022625321,
        "meta_mean_motion_dot": 0.00090979,
        "meta_mean_motion_ddot": 0,
        "tle_line1": "1 66402U 25257Y   25343.66668981  .00090979  00000+0  22625-2 0  9998",
        "tle_line2": "2 66402  53.1594 278.6656 0001218  96.1432 176.8630 15.39551001  6001"
      },
      "geometry": {
        "type": "Point",
        "coordinates": [
          171.64733002455662,
          -52.03213664290608
        ]
      }
    },
    {
      "type": "Feature",
      "properties": {
        "norad_id": 66403,
        "name": "STARLINK-35602",
        "group": "last-30-days",
        "lat": -37.97610606753852,
        "lon": -118.16294117358115,
        "alt_km": 452.3201547636345,
        "timestamp": "2025-12-09T20:37:08.054421+00:00",
        "meta_object_name": "STARLINK-35602",
        "meta_object_id": "2025-257Z",
        "meta_epoch": "2025-12-09T16:00:01.999584",
        "meta_mean_motion": 15.3955104,
        "meta_eccentricity": 0.00011674,
        "meta_inclination": 53.1586,
        "meta_ra_of_asc_node": 278.566,
        "meta_arg_of_pericenter": 102.4875,
        "meta_mean_anomaly": 220.1738,
        "meta_ephemeris_type": 0,
        "meta_classification_type": "U",
        "meta_norad_cat_id": 66403,
        "meta_element_set_no": 999,
        "meta_rev_at_epoch": 600,
        "meta_bstar": 0.0024650141,
        "meta_mean_motion_dot": 0.00099266,
        "meta_mean_motion_ddot": 0,
        "tle_line1": "1 66403U 25257Z   25343.66668981  .00099266  00000+0  24650-2 0  9997",
        "tle_line2": "2 66403  53.1586 278.5660 0001167 102.4875 220.1738 15.39551040  6007"
      },
      "geometry": {
        "type": "Point",
        "coordinates": [
          -118.16294117358115,
          -37.97610606753852
        ]
      }
    },
    {
      "type": "Feature",
      "properties": {
        "norad_id": 66404,
        "name": "STARLINK-35691",
        "group": "last-30-days",
        "lat": -36.776175305091606,
        "lon": -116.42868054054186,
        "alt_km": 452.1699891101234,
        "timestamp": "2025-12-09T20:37:08.054432+00:00",
        "meta_object_name": "STARLINK-35691",
        "meta_object_id": "2025-257AA",
        "meta_epoch": "2025-12-09T16:00:01.999584",
        "meta_mean_motion": 15.39545706,
        "meta_eccentricity": 0.00010723,
        "meta_inclination": 53.1585,
        "meta_ra_of_asc_node": 278.562,
        "meta_arg_of_pericenter": 99.292,
        "meta_mean_anomaly": 225.2036,
        "meta_ephemeris_type": 0,
        "meta_classification_type": "U",
        "meta_norad_cat_id": 66404,
        "meta_element_set_no": 999,
        "meta_rev_at_epoch": 600,
        "meta_bstar": 0.0028382032,
        "meta_mean_motion_dot": 0.00114566,
        "meta_mean_motion_ddot": 0,
        "tle_line1": "1 66404U 25257AA  25343.66668981  .00114566  00000+0  28382-2 0  9995",
        "tle_line2": "2 66404  53.1585 278.5620 0001072  99.2920 225.2036 15.39545706  6001"
      },
      "geometry": {
        "type": "Point",
        "coordinates": [
          -116.42868054054186,
          -36.776175305091606
        ]
      }
    },
    {
      "type": "Feature",
      "properties": {
        "norad_id": 66405,
        "name": "STARLINK-35683",
        "group": "last-30-days",
        "lat": -18.028956748553668,
        "lon": -96.52169072131939,
        "alt_km": 449.79568899811875,
        "timestamp": "2025-12-09T20:37:08.054444+00:00",
        "meta_object_name": "STARLINK-35683",
        "meta_object_id": "2025-257AB",
        "meta_epoch": "2025-12-09T16:00:01.999584",
        "meta_mean_motion": 15.40571857,
        "meta_eccentricity": 0.00015573,
        "meta_inclination": 53.1588,
        "meta_ra_of_asc_node": 278.5106,
        "meta_arg_of_pericenter": 116.4894,
        "meta_mean_anomaly": 233.2167,
        "meta_ephemeris_type": 0,
        "meta_classification_type": "U",
        "meta_norad_cat_id": 66405,
        "meta_element_set_no": 999,
        "meta_rev_at_epoch": 584,
        "meta_bstar": -0.035168116,
        "meta_mean_motion_dot": -0.01308126,
        "meta_mean_motion_ddot": 0,
        "tle_line1": "1 66405U 25257AB  25343.66668981 -.01308126  00000+0 -35168-1 0  9995",
        "tle_line2": "2 66405  53.1588 278.5106 0001557 116.4894 233.2167 15.40571857  5847"
      },
      "geometry": {
        "type": "Point",
        "coordinates": [
          -96.52169072131939,
          -18.028956748553668
        ]
      }
    },
    {
      "type": "Feature",
      "properties": {
        "norad_id": 66406,
        "name": "STARLINK-34840",
        "group": "last-30-days",
        "lat": 14.299750794495617,
        "lon": -71.46034425580912,
        "alt_km": 417.42023585948573,
        "timestamp": "2025-12-09T20:37:08.054454+00:00",
        "meta_object_name": "STARLINK-34840",
        "meta_object_id": "2025-257AC",
        "meta_epoch": "2025-12-09T11:15:10.778400",
        "meta_mean_motion": 15.49355554,
        "meta_eccentricity": 0.00012592,
        "meta_inclination": 53.158,
        "meta_ra_of_asc_node": 279.3888,
        "meta_arg_of_pericenter": 122.2411,
        "meta_mean_anomaly": 237.872,
        "meta_ephemeris_type": 0,
        "meta_classification_type": "U",
        "meta_norad_cat_id": 66406,
        "meta_element_set_no": 999,
        "meta_rev_at_epoch": 581,
        "meta_bstar": 0.0022382017,
        "meta_mean_motion_dot": 0.00126269,
        "meta_mean_motion_ddot": 0,
        "tle_line1": "1 66406U 25257AC  25343.46887475  .00126269  00000+0  22382-2 0  9993",
        "tle_line2": "2 66406  53.1580 279.3888 0001259 122.2411 237.8720 15.49355554  5810"
      },
      "geometry": {
        "type": "Point",
        "coordinates": [
          -71.46034425580912,
          14.299750794495617
        ]
      }
    },
    {
      "type": "Feature",
      "properties": {
        "norad_id": 66407,
        "name": "STARLINK-35686",
        "group": "last-30-days",
        "lat": -1.3078751038156322,
        "lon": -83.41992386781403,
        "alt_km": 438.45338432902736,
        "timestamp": "2025-12-09T20:37:08.054469+00:00",
        "meta_object_name": "STARLINK-35686",
        "meta_object_id": "2025-257AD",
        "meta_epoch": "2025-12-09T16:00:01.999584",
        "meta_mean_motion": 15.43890994,
        "meta_eccentricity": 9.952e-05,
        "meta_inclination": 53.1582,
        "meta_ra_of_asc_node": 278.4732,
        "meta_arg_of_pericenter": 105.524,
        "meta_mean_anomaly": 263.1126,
        "meta_ephemeris_type": 0,
        "meta_classification_type": "U",
        "meta_norad_cat_id": 66407,
        "meta_element_set_no": 999,
        "meta_rev_at_epoch": 600,
        "meta_bstar": -0.048984822,
        "meta_mean_motion_dot": -0.02013194,
        "meta_mean_motion_ddot": 0,
        "tle_line1": "1 66407U 25257AD  25343.66668981 -.02013194  00000+0 -48985-1 0  9997",
        "tle_line2": "2 66407  53.1582 278.4732 0000995 105.5240 263.1126 15.43890994  6001"
      },
      "geometry": {
        "type": "Point",
        "coordinates": [
          -83.41992386781403,
          -1.3078751038156322
        ]
      }
    }
  ]
}